CTC1_L_00359001-01
1 10000U 23132MQ  26075.70033565  .00000000  00000+0  00000-0 0  9990
2 10000  90.0000   0.0000 0000000   0.0000   0.0000 13.72670257    13
CTC1_L_00359001-02
1 10001U 22738IQ  26075.70033565  .00000000  00000+0  00000-0 0  9992
2 10001  90.0000   0.0000 0000000   0.0000  90.0000 13.72670257    13
CTC1_L_00359001-03
1 10002U 26463PV  26075.70033565  .00000000  00000+0  00000-0 0  9992
2 10002  90.0000   0.0000 0000000   0.0000 180.0000 13.72670257    14
CTC1_L_00359001-04
1 10003U 24180N   26075.70033565  .00000000  00000+0  00000-0 0  9997
2 10003  90.0000   0.0000 0000000   0.0000 270.0000 13.72670257    15
CTC1_L_00359002-01
1 10004U 26356NO  26075.70033565  .00000000  00000+0  00000-0 0  9995
2 10004  90.0000  12.0000 0000000   0.0000  12.0000 13.72670257    13
CTC1_L_00359002-02
1 10005U 24939QQ  26075.70033565  .00000000  00000+0  00000-0 0  9991
2 10005  90.0000  12.0000 0000000   0.0000 102.0000 13.72670257    14
CTC1_L_00359002-03
1 10006U 22202HC  26075.70033565  .00000000  00000+0  00000-0 0  9993
2 10006  90.0000  12.0000 0000000   0.0000 192.0000 13.72670257    14
CTC1_L_00359002-04
1 10007U 26284N   26075.70033565  .00000000  00000+0  00000-0 0  9998
2 10007  90.0000  12.0000 0000000   0.0000 282.0000 13.72670257    15
CTC1_L_00359003-01
1 10008U 23440GP  26075.70033565  .00000000  00000+0  00000-0 0  9990
2 10008  90.0000  24.0000 0000000   0.0000  24.0000 13.72670257    13
CTC1_L_00359003-02
1 10009U 23613UZ  26075.70033565  .00000000  00000+0  00000-0 0  9993
2 10009  90.0000  24.0000 0000000   0.0000 114.0000 13.72670257    14
CTC1_L_00359003-03
1 10010U 23950GS  26075.70033565  .00000000  00000+0  00000-0 0  9999
2 10010  90.0000  24.0000 0000000   0.0000 204.0000 13.72670257    16
CTC1_L_00359003-04
1 10011U 22689B   26075.70033565  .00000000  00000+0  00000-0 0  9998
2 10011  90.0000  24.0000 0000000   0.0000 294.0000 13.72670257    16
CTC1_L_00359004-01
1 10012U 22354EU  26075.70033565  .00000000  00000+0  00000-0 0  9998
2 10012  90.0000  36.0000 0000000   0.0000  36.0000 13.72670257    14
CTC1_L_00359004-02
1 10013U 23049ZF  26075.70033565  .00000000  00000+0  00000-0 0  9991
2 10013  90.0000  36.0000 0000000   0.0000 126.0000 13.72670257    15
CTC1_L_00359004-03
1 10014U 25822NW  26075.70033565  .00000000  00000+0  00000-0 0  9993
2 10014  90.0000  36.0000 0000000   0.0000 216.0000 13.72670257    16
CTC1_L_00359004-04
1 10015U 23814NS  26075.70033565  .00000000  00000+0  00000-0 0  9993
2 10015  90.0000  36.0000 0000000   0.0000 306.0000 13.72670257    17
CTC1_L_00359005-01
1 10016U 24927DE  26075.70033565  .00000000  00000+0  00000-0 0  9990
2 10016  90.0000  48.0000 0000000   0.0000  48.0000 13.72670257    14
CTC1_L_00359005-02
1 10017U 25189WT  26075.70033565  .00000000  00000+0  00000-0 0  9992
2 10017  90.0000  48.0000 0000000   0.0000 138.0000 13.72670257    15
CTC1_L_00359005-03
1 10018U 22325MQ  26075.70033565  .00000000  00000+0  00000-0 0  9992
2 10018  90.0000  48.0000 0000000   0.0000 228.0000 13.72670257    16
CTC1_L_00359005-04
1 10019U 23318OD  26075.70033565  .00000000  00000+0  00000-0 0  9996
2 10019  90.0000  48.0000 0000000   0.0000 318.0000 13.72670257    17
CTC1_L_00359006-01
1 10020U 23188U   26075.70033565  .00000000  00000+0  00000-0 0  9993
2 10020  90.0000  60.0000 0000000   0.0000  60.0000 13.72670257    17
CTC1_L_00359006-02
1 10021U 25775KQ  26075.70033565  .00000000  00000+0  00000-0 0  9998
2 10021  90.0000  60.0000 0000000   0.0000 150.0000 13.72670257    18
CTC1_L_00359006-03
1 10022U 26759RS  26075.70033565  .00000000  00000+0  00000-0 0  9992
2 10022  90.0000  60.0000 0000000   0.0000 240.0000 13.72670257    19
CTC1_L_00359006-04
1 10023U 25215NM  26075.70033565  .00000000  00000+0  00000-0 0  9999
2 10023  90.0000  60.0000 0000000   0.0000 330.0000 13.72670257    10
CTC1_L_00359007-01
1 10024U 23451SS  26075.70033565  .00000000  00000+0  00000-0 0  9990
2 10024  90.0000  72.0000 0000000   0.0000  72.0000 13.72670257    17
CTC1_L_00359007-02
1 10025U 24078VQ  26075.70033565  .00000000  00000+0  00000-0 0  9997
2 10025  90.0000  72.0000 0000000   0.0000 162.0000 13.72670257    18
CTC1_L_00359007-03
1 10026U 22384RY  26075.70033565  .00000000  00000+0  00000-0 0  9996
2 10026  90.0000  72.0000 0000000   0.0000 252.0000 13.72670257    19
CTC1_L_00359007-04
1 10027U 22064AC  26075.70033565  .00000000  00000+0  00000-0 0  9992
2 10027  90.0000  72.0000 0000000   0.0000 342.0000 13.72670257    10
CTC1_L_00359008-01
1 10028U 26560PH  26075.70033565  .00000000  00000+0  00000-0 0  9998
2 10028  90.0000  84.0000 0000000   0.0000  84.0000 13.72670257    17
CTC1_L_00359008-02
1 10029U 22408GV  26075.70033565  .00000000  00000+0  00000-0 0  9996
2 10029  90.0000  84.0000 0000000   0.0000 174.0000 13.72670257    18
CTC1_L_00359008-03
1 10030U 26552SU  26075.70033565  .00000000  00000+0  00000-0 0  9992
2 10030  90.0000  84.0000 0000000   0.0000 264.0000 13.72670257    10
CTC1_L_00359008-04
1 10031U 24682KC  26075.70033565  .00000000  00000+0  00000-0 0  9995
2 10031  90.0000  84.0000 0000000   0.0000 354.0000 13.72670257    11
CTC1_L_00359009-01
1 10032U 25824UY  26075.70033565  .00000000  00000+0  00000-0 0  9995
2 10032  90.0000  96.0000 0000000   0.0000  96.0000 13.72670257    18
CTC1_L_00359009-02
1 10033U 25415V   26075.70033565  .00000000  00000+0  00000-0 0  9992
2 10033  90.0000  96.0000 0000000   0.0000 186.0000 13.72670257    19
CTC1_L_00359009-03
1 10034U 25585YI  26075.70033565  .00000000  00000+0  00000-0 0  9991
2 10034  90.0000  96.0000 0000000   0.0000 276.0000 13.72670257    10
CTC1_L_00359009-04
1 10035U 24314YW  26075.70033565  .00000000  00000+0  00000-0 0  9991
2 10035  90.0000  96.0000 0000000   0.0000   6.0000 13.72670257    12
CTC1_L_00359010-01
1 10036U 24522JN  26075.70033565  .00000000  00000+0  00000-0 0  9993
2 10036  90.0000 108.0000 0000000   0.0000 108.0000 13.72670257    10
CTC1_L_00359010-02
1 10037U 24237P   26075.70033565  .00000000  00000+0  00000-0 0  9997
2 10037  90.0000 108.0000 0000000   0.0000 198.0000 13.72670257    10
CTC1_L_00359010-03
1 10038U 23573HD  26075.70033565  .00000000  00000+0  00000-0 0  9990
2 10038  90.0000 108.0000 0000000   0.0000 288.0000 13.72670257    11
CTC1_L_00359010-04
1 10039U 25681QZ  26075.70033565  .00000000  00000+0  00000-0 0  9993
2 10039  90.0000 108.0000 0000000   0.0000  18.0000 13.72670257    13
CTC1_L_00359011-01
1 10040U 24257GG  26075.70033565  .00000000  00000+0  00000-0 0  9993
2 10040  90.0000 120.0000 0000000   0.0000 120.0000 13.72670257    13
CTC1_L_00359011-02
1 10041U 24928A   26075.70033565  .00000000  00000+0  00000-0 0  9999
2 10041  90.0000 120.0000 0000000   0.0000 210.0000 13.72670257    14
CTC1_L_00359011-03
1 10042U 23140QP  26075.70033565  .00000000  00000+0  00000-0 0  9995
2 10042  90.0000 120.0000 0000000   0.0000 300.0000 13.72670257    15
CTC1_L_00359011-04
1 10043U 26461OW  26075.70033565  .00000000  00000+0  00000-0 0  9995
2 10043  90.0000 120.0000 0000000   0.0000  30.0000 13.72670257    16
CTC1_L_00359012-01
1 10044U 26385MI  26075.70033565  .00000000  00000+0  00000-0 0  9991
2 10044  90.0000 132.0000 0000000   0.0000 132.0000 13.72670257    13
CTC1_L_00359012-02
1 10045U 23860YG  26075.70033565  .00000000  00000+0  00000-0 0  9997
2 10045  90.0000 132.0000 0000000   0.0000 222.0000 13.72670257    14
CTC1_L_00359012-03
1 10046U 22629BA  26075.70033565  .00000000  00000+0  00000-0 0  9990
2 10046  90.0000 132.0000 0000000   0.0000 312.0000 13.72670257    15
CTC1_L_00359012-04
1 10047U 22968UD  26075.70033565  .00000000  00000+0  00000-0 0  9997
2 10047  90.0000 132.0000 0000000   0.0000  42.0000 13.72670257    16
CTC1_L_00359013-01
1 10048U 22173SR  26075.70033565  .00000000  00000+0  00000-0 0  9996
2 10048  90.0000 144.0000 0000000   0.0000 144.0000 13.72670257    13
CTC1_L_00359013-02
1 10049U 26517AZ  26075.70033565  .00000000  00000+0  00000-0 0  9993
2 10049  90.0000 144.0000 0000000   0.0000 234.0000 13.72670257    14
CTC1_L_00359013-03
1 10050U 23476RS  26075.70033565  .00000000  00000+0  00000-0 0  9996
2 10050  90.0000 144.0000 0000000   0.0000 324.0000 13.72670257    16
CTC1_L_00359013-04
1 10051U 24005OO  26075.70033565  .00000000  00000+0  00000-0 0  9996
2 10051  90.0000 144.0000 0000000   0.0000  54.0000 13.72670257    17
CTC1_L_00359014-01
1 10052U 24769RZ  26075.70033565  .00000000  00000+0  00000-0 0  9994
2 10052  90.0000 156.0000 0000000   0.0000 156.0000 13.72670257    14
CTC1_L_00359014-02
1 10053U 22721HI  26075.70033565  .00000000  00000+0  00000-0 0  9991
2 10053  90.0000 156.0000 0000000   0.0000 246.0000 13.72670257    15
CTC1_L_00359014-03
1 10054U 25886CE  26075.70033565  .00000000  00000+0  00000-0 0  9997
2 10054  90.0000 156.0000 0000000   0.0000 336.0000 13.72670257    16
CTC1_L_00359014-04
1 10055U 23684PM  26075.70033565  .00000000  00000+0  00000-0 0  9992
2 10055  90.0000 156.0000 0000000   0.0000  66.0000 13.72670257    17
CTC1_L_00359015-01
1 10056U 26488ZE  26075.70033565  .00000000  00000+0  00000-0 0  9998
2 10056  90.0000 168.0000 0000000   0.0000 168.0000 13.72670257    14
CTC1_L_00359015-02
1 10057U 24159LR  26075.70033565  .00000000  00000+0  00000-0 0  9992
2 10057  90.0000 168.0000 0000000   0.0000 258.0000 13.72670257    15
CTC1_L_00359015-03
1 10058U 24489B   26075.70033565  .00000000  00000+0  00000-0 0  9999
2 10058  90.0000 168.0000 0000000   0.0000 348.0000 13.72670257    16
CTC1_L_00359015-04
1 10059U 22713ZX  26075.70033565  .00000000  00000+0  00000-0 0  9998
2 10059  90.0000 168.0000 0000000   0.0000  78.0000 13.72670257    17
CTC1_L_00359016-01
1 10060U 26898IO  26075.70033565  .00000000  00000+0  00000-0 0  9998
2 10060  90.0000 180.0000 0000000   0.0000 180.0000 13.72670257    17
CTC1_L_00359016-02
1 10061U 25559LV  26075.70033565  .00000000  00000+0  00000-0 0  9992
2 10061  90.0000 180.0000 0000000   0.0000 270.0000 13.72670257    18
